start=new Date('2022-03-07T00:00:00.000Z').valueOf();
sats=[{"GP_ID":"198080952","PERIAPSIS":"546.127","MEAN_ANOMALY":"283.2058","COUNTRY_CODE":"US","CLASSIFICATION_TYPE":"U","LAUNCH_DATE":"2020-10-06","INCLINATION":"53.0525","EPOCH":"2022-03-06T20:13:06.727872","REF_FRAME":"TEME","REV_AT_EPOCH":"7888","DECAY_DATE":null,"PERIOD":"95.592","MEAN_ELEMENT_THEORY":"SGP4","EPHEMERIS_TYPE":"0","APOAPSIS":"548.279","SEMIMAJOR_AXIS":"6925.338","ELEMENT_SET_NO":"999","MEAN_MOTION":"15.06403389","ARG_OF_PERICENTER":"76.9104","RA_OF_ASC_NODE":"268.0780","OBJECT_ID":"2020-070BD","OBJECT_TYPE":"PAYLOAD","BSTAR":"-0.00000144470000","TLE_LINE1":"1 46583U 20070BD  22065.84243898 -.00000303  00000-0 -14447-5 0  9999","FILE":"3348074","ECCENTRICITY":"0.00015540","TLE_LINE2":"2 46583  53.0525 268.0780 0001554  76.9104 283.2058 15.06403389 78889","RCS_SIZE":"LARGE","MEAN_MOTION_DDOT":"0.0000000000000","NORAD_CAT_ID":"46583","MEAN_MOTION_DOT":"-0.00000303","CENTER_NAME":"EARTH","OBJECT_NAME":"STARLINK-1729","SITE":"AFETR","TIME_SYSTEM":"UTC"},{"COUNTRY_CODE":"US","MEAN_ANOMALY":"275.5930","PERIAPSIS":"546.275","GP_ID":"198066284","DECAY_DATE":null,"REV_AT_EPOCH":"7910","REF_FRAME":"TEME","EPOCH":"2022-03-06T12:44:36.699648","INCLINATION":"53.0556","LAUNCH_DATE":"2020-10-06","CLASSIFICATION_TYPE":"U","BSTAR":"0.00005721400000","TLE_LINE1":"1 46584U 20070BE  22065.53098032  .00000571  00000-0  57214-4 0  9997","OBJECT_ID":"2020-070BE","OBJECT_TYPE":"PAYLOAD","RA_OF_ASC_NODE":"249.4824","ARG_OF_PERICENTER":"84.5218","MEAN_MOTION":"15.06391545","ELEMENT_SET_NO":"999","SEMIMAJOR_AXIS":"6925.374","APOAPSIS":"548.204","EPHEMERIS_TYPE":"0","MEAN_ELEMENT_THEORY":"SGP4","PERIOD":"95.593","SITE":"AFETR","TIME_SYSTEM":"UTC","OBJECT_NAME":"STARLINK-1732","CENTER_NAME":"EARTH","MEAN_MOTION_DOT":"0.00000571","NORAD_CAT_ID":"46584","MEAN_MOTION_DDOT":"0.0000000000000","RCS_SIZE":"LARGE","TLE_LINE2":"2 46584  53.0556 249.4824 0001393  84.5218 275.5930 15.06391545 79107","ECCENTRICITY":"0.00013930","FILE":"3347638"},{"CLASSIFICATION_TYPE":"U","LAUNCH_DATE":"2020-10-06","INCLINATION":"53.0531","EPOCH":"2022-03-06T21:08:52.151424","REF_FRAME":"TEME","REV_AT_EPOCH":"7885","DECAY_DATE":null,"GP_ID":"198081461","PERIAPSIS":"546.241","MEAN_ANOMALY":"283.3463","COUNTRY_CODE":"US","ECCENTRICITY":"0.00014260","FILE":"3348088","TLE_LINE2":"2 46585  53.0531 247.9142 0001426  76.7685 283.3463 15.06395196 78850","RCS_SIZE":"LARGE","MEAN_MOTION_DDOT":"0.0000000000000","NORAD_CAT_ID":"46585","MEAN_MOTION_DOT":"0.00001127","OBJECT_NAME":"STARLINK-1736","CENTER_NAME":"EARTH","SITE":"AFETR","TIME_SYSTEM":"UTC","PERIOD":"95.592","MEAN_ELEMENT_THEORY":"SGP4","EPHEMERIS_TYPE":"0","APOAPSIS":"548.216","SEMIMAJOR_AXIS":"6925.363","ELEMENT_SET_NO":"999","MEAN_MOTION":"15.06395196","ARG_OF_PERICENTER":"76.7685","RA_OF_ASC_NODE":"247.9142","OBJECT_ID":"2020-070BF","OBJECT_TYPE":"PAYLOAD","BSTAR":"0.00009457200000","TLE_LINE1":"1 46585U 20070BF  22065.88115916  .00001127  00000-0  94572-4 0  9993"},{"RA_OF_ASC_NODE":"247.6705","OBJECT_TYPE":"PAYLOAD","OBJECT_ID":"2020-070BG","TLE_LINE1":"1 46586U 20070BG  22065.93642739 -.00000126  00000-0  10449-4 0  9998","BSTAR":"0.00001044900000","ELEMENT_SET_NO":"999","MEAN_MOTION":"15.06396094","ARG_OF_PERICENTER":"101.5401","SEMIMAJOR_AXIS":"6925.361","MEAN_ELEMENT_THEORY":"SGP4","PERIOD":"95.592","EPHEMERIS_TYPE":"0","APOAPSIS":"548.172","OBJECT_NAME":"STARLINK-1737","CENTER_NAME":"EARTH","SITE":"AFETR","TIME_SYSTEM":"UTC","MEAN_MOTION_DOT":"-0.00000126","MEAN_MOTION_DDOT":"0.0000000000000","NORAD_CAT_ID":"46586","FILE":"3348088","ECCENTRICITY":"0.00013670","TLE_LINE2":"2 46586  53.0540 247.6705 0001367 101.5401 258.5741 15.06396094 78840","RCS_SIZE":"LARGE","PERIAPSIS":"546.279","MEAN_ANOMALY":"258.5741","COUNTRY_CODE":"US","GP_ID":"198081748","DECAY_DATE":null,"REF_FRAME":"TEME","REV_AT_EPOCH":"7884","EPOCH":"2022-03-06T22:28:27.326496","CLASSIFICATION_TYPE":"U","LAUNCH_DATE":"2020-10-06","INCLINATION":"53.0540"},{"OBJECT_ID":"2020-070BJ","OBJECT_TYPE":"PAYLOAD","BSTAR":"0.00038650000000","TLE_LINE1":"1 46588U 20070BJ  22065.51993251  .00005481  00000-0  38650-3 0  9993","RA_OF_ASC_NODE":"249.5314","ARG_OF_PERICENTER":"71.3236","ELEMENT_SET_NO":"999","MEAN_MOTION":"15.06405293","SEMIMAJOR_AXIS":"6925.332","APOAPSIS":"548.222","PERIOD":"95.592","MEAN_ELEMENT_THEORY":"SGP4","EPHEMERIS_TYPE":"0","CENTER_NAME":"EARTH","OBJECT_NAME":"STARLINK-1746","SITE":"AFETR","TIME_SYSTEM":"UTC","MEAN_MOTION_DOT":"0.00005481","NORAD_CAT_ID":"46588","MEAN_MOTION_DDOT":"0.0000000000000","TLE_LINE2":"2 46588  53.0548 249.5314 0001479  71.3236 288.7913 15.06405293 79109","RCS_SIZE":"LARGE","FILE":"3347638","ECCENTRICITY":"0.00014790","COUNTRY_CODE":"US","PERIAPSIS":"546.173","MEAN_ANOMALY":"288.7913","GP_ID":"198066535","DECAY_DATE":null,"REF_FRAME":"TEME","REV_AT_EPOCH":"7910","EPOCH":"2022-03-06T12:28:42.168864","INCLINATION":"53.0548","LAUNCH_DATE":"2020-10-06","CLASSIFICATION_TYPE":"U"},{"REV_AT_EPOCH":"7915","REF_FRAME":"TEME","DECAY_DATE":null,"LAUNCH_DATE":"2020-10-06","INCLINATION":"53.0543","CLASSIFICATION_TYPE":"U","EPOCH":"2022-03-06T20:15:45.607968","COUNTRY_CODE":"US","MEAN_ANOMALY":"285.6520","PERIAPSIS":"546.218","GP_ID":"198081521","MEAN_MOTION_DOT":"0.00001735","TIME_SYSTEM":"UTC","SITE":"AFETR","CENTER_NAME":"EARTH","OBJECT_NAME":"STARLINK-1749","RCS_SIZE":"LARGE","TLE_LINE2":"2 46589  53.0543 248.0770 0001419  74.4625 285.6520 15.06404326 79156","FILE":"3348092","ECCENTRICITY":"0.00014190","NORAD_CAT_ID":"46589","MEAN_MOTION_DDOT":"0.0000000000000","ARG_OF_PERICENTER":"74.4625","MEAN_MOTION":"15.06404326","ELEMENT_SET_NO":"999","BSTAR":"0.00013530000000","TLE_LINE1":"1 46589U 20070BK  22065.84427787  .00001735  00000-0  13530-3 0  9994","OBJECT_ID":"2020-070BK","OBJECT_TYPE":"PAYLOAD","RA_OF_ASC_NODE":"248.0770","APOAPSIS":"548.183","EPHEMERIS_TYPE":"0","PERIOD":"95.592","MEAN_ELEMENT_THEORY":"SGP4","SEMIMAJOR_AXIS":"6925.335"},{"EPOCH":"2022-03-06T13:00:29.844576","CLASSIFICATION_TYPE":"U","LAUNCH_DATE":"2020-10-06","INCLINATION":"53.0539","DECAY_DATE":null,"REF_FRAME":"TEME","REV_AT_EPOCH":"8074","GP_ID":"198067537","PERIAPSIS":"326.032","MEAN_ANOMALY":"57.5195","COUNTRY_CODE":"US","MEAN_MOTION_DDOT":"0.0000000000000","NORAD_CAT_ID":"46590","FILE":"3347638","ECCENTRICITY":"0.00054170","TLE_LINE2":"2 46590  53.0539 132.5612 0005417 302.5302  57.5195 15.80274535 80744","RCS_SIZE":"LARGE","CENTER_NAME":"EARTH","OBJECT_NAME":"STARLINK-1754","TIME_SYSTEM":"UTC","SITE":"AFETR","MEAN_MOTION_DOT":"0.00197772","SEMIMAJOR_AXIS":"6707.801","MEAN_ELEMENT_THEORY":"SGP4","PERIOD":"91.123","EPHEMERIS_TYPE":"0","APOAPSIS":"333.299","RA_OF_ASC_NODE":"132.5612","OBJECT_TYPE":"PAYLOAD","OBJECT_ID":"2020-070BL","BSTAR":"0.00100930000000","TLE_LINE1":"1 46590U 20070BL  22065.54201209  .00197772  00000-0  10093-2 0  9999","ELEMENT_SET_NO":"999","MEAN_MOTION":"15.80274535","ARG_OF_PERICENTER":"302.5302"},{"EPOCH":"2022-03-06T13:37:40.986336","INCLINATION":"53.0525","LAUNCH_DATE":"2020-10-06","CLASSIFICATION_TYPE":"U","DECAY_DATE":null,"REF_FRAME":"TEME","REV_AT_EPOCH":"7816","GP_ID":"198067285","COUNTRY_CODE":"US","PERIAPSIS":"546.148","MEAN_ANOMALY":"279.1166","NORAD_CAT_ID":"46591","MEAN_MOTION_DDOT":"0.0000000000000","TLE_LINE2":"2 46591  53.0525 249.3203 0001511  80.9994 279.1166 15.06406209 78164","RCS_SIZE":"LARGE","FILE":"3347638","ECCENTRICITY":"0.00015110","OBJECT_NAME":"STARLINK-1755","CENTER_NAME":"EARTH","SITE":"AFETR","TIME_SYSTEM":"UTC","MEAN_MOTION_DOT":"0.00002197","SEMIMAJOR_AXIS":"6925.330","APOAPSIS":"548.241","PERIOD":"95.592","MEAN_ELEMENT_THEORY":"SGP4","EPHEMERIS_TYPE":"0","OBJECT_ID":"2020-070BM","OBJECT_TYPE":"PAYLOAD","BSTAR":"0.00016633000000","TLE_LINE1":"1 46591U 20070BM  22065.56783549  .00002197  00000-0  16633-3 0  9997","RA_OF_ASC_NODE":"249.3203","ARG_OF_PERICENTER":"80.9994","ELEMENT_SET_NO":"999","MEAN_MOTION":"15.06406209"},{"RCS_SIZE":"LARGE","TLE_LINE2":"2 46671  53.0562 338.7012 0001889  46.3480 313.7666 15.06413163 76883","ECCENTRICITY":"0.00018890","FILE":"3347908","NORAD_CAT_ID":"46671","MEAN_MOTION_DDOT":"0.0000000000000","MEAN_MOTION_DOT":"0.00003816","TIME_SYSTEM":"UTC","SITE":"AFETR","OBJECT_NAME":"STARLINK-1715","CENTER_NAME":"EARTH","APOAPSIS":"548.481","EPHEMERIS_TYPE":"0","PERIOD":"95.591","MEAN_ELEMENT_THEORY":"SGP4","SEMIMAJOR_AXIS":"6925.308","ARG_OF_PERICENTER":"46.3480","MEAN_MOTION":"15.06413163","ELEMENT_SET_NO":"999","BSTAR":"0.00027484000000","TLE_LINE1":"1 46671U 20073B   22065.70601665  .00003816  00000-0  27484-3 0  9998","OBJECT_TYPE":"PAYLOAD","OBJECT_ID":"2020-073B","RA_OF_ASC_NODE":"338.7012","INCLINATION":"53.0562","LAUNCH_DATE":"2020-10-18","CLASSIFICATION_TYPE":"U","EPOCH":"2022-03-06T16:56:39.838560","REV_AT_EPOCH":"7688","REF_FRAME":"TEME","DECAY_DATE":null,"GP_ID":"198077063","COUNTRY_CODE":"US","MEAN_ANOMALY":"313.7666","PERIAPSIS":"545.865"},{"REF_FRAME":"TEME","REV_AT_EPOCH":"7644","DECAY_DATE":null,"INCLINATION":"53.0547","LAUNCH_DATE":"2020-10-18","CLASSIFICATION_TYPE":"U","EPOCH":"2022-03-06T11:32:17.003040","COUNTRY_CODE":"US","PERIAPSIS":"545.880","MEAN_ANOMALY":"297.0074","GP_ID":"198067293","MEAN_MOTION_DOT":"0.00005568","CENTER_NAME":"EARTH","OBJECT_NAME":"STARLINK-1716","TIME_SYSTEM":"UTC","SITE":"AFETR","TLE_LINE2":"2 46672  53.0547 334.6974 0001855  63.1105 297.0074 15.06415906 76449","RCS_SIZE":"LARGE","FILE":"3347638","ECCENTRICITY":"0.00018550","NORAD_CAT_ID":"46672","MEAN_MOTION_DDOT":"0.0000000000000","ARG_OF_PERICENTER":"63.1105","ELEMENT_SET_NO":"999","MEAN_MOTION":"15.06415906","OBJECT_ID":"2020-073C","OBJECT_TYPE":"PAYLOAD","BSTAR":"0.00039223000000","TLE_LINE1":"1 46672U 20073C   22065.48075235  .00005568  00000-0  39223-3 0  9992","RA_OF_ASC_NODE":"334.6974","APOAPSIS":"548.449","MEAN_ELEMENT_THEORY":"SGP4","PERIOD":"95.591","EPHEMERIS_TYPE":"0","SEMIMAJOR_AXIS":"6925.300"}];
